{
"type": "FeatureCollection",
"name": "Puentes_PAP_Estructurados",
"crs": { "type": "name", "properties": { "name": "urn:ogc:def:crs:OGC:1.3:CRS84" } },
"features": [
{ "type": "Feature", "properties": { "ID": 1, "Proyecto": "Puente San Fermin", "Municipio": "Briceño", "Subregion": "Norte", "Longitud_m": "26", "Costo_total": 2724256403, "Estado": "Contratado (Acta de inicio 23 de Junio) Orden Publico", "Ejecutor": "Departamento de Antioquia", "Av_fisico": 0, "Av_financiero": 0, "BPIN": "", "Latitud": 7.098722, "Longitud": -75.504762, "Obs_coord": "Inicio Tramo K09+400" }, "geometry": { "type": "Point", "coordinates": [ -75.504762, 7.098722 ] } },
{ "type": "Feature", "properties": { "ID": 2, "Proyecto": "PAP Ituango - PAP2", "Municipio": "Ituango", "Subregion": "Norte", "Longitud_m": "-", "Costo_total": 14638912836, "Estado": "Contratado (Acta de inicio 23 de Junio)", "Ejecutor": "Departamento de Antioquia", "Av_fisico": 0, "Av_financiero": 0, "BPIN": "", "Latitud": 7.166016, "Longitud": -75.749955, "Obs_coord": "Inicio trayecto K82+100" }, "geometry": { "type": "Point", "coordinates": [ -75.749955, 7.166016 ] } },
{ "type": "Feature", "properties": { "ID": 2, "Proyecto": "PAP Ituango - PAP3", "Municipio": "Ituango", "Subregion": "Norte", "Longitud_m": "-", "Costo_total": 14638912836, "Estado": "Contratado (Acta de inicio 23 de Junio)", "Ejecutor": "Departamento de Antioquia", "Av_fisico": 0, "Av_financiero": 0, "BPIN": "", "Latitud": 7.145563, "Longitud": -75.725117, "Obs_coord": "Fin trayecto K76+406" }, "geometry": { "type": "Point", "coordinates": [ -75.725117, 7.145563 ] } },
{ "type": "Feature", "properties": { "ID": 2, "Proyecto": "PAP Ituango - PAP4", "Municipio": "Ituango", "Subregion": "Norte", "Longitud_m": "-", "Costo_total": 14638912836, "Estado": "Contratado (Acta de inicio 23 de Junio)", "Ejecutor": "Departamento de Antioquia", "Av_fisico": 0, "Av_financiero": 0, "BPIN": "", "Latitud": 7.135916, "Longitud": -75.719792, "Obs_coord": "Fin trayecto K73+900" }, "geometry": { "type": "Point", "coordinates": [ -75.719792, 7.135916 ] } },
{ "type": "Feature", "properties": { "ID": 2, "Proyecto": "PAP Carolina del Príncipe", "Municipio": "Carolina del Príncipe", "Subregion": "Norte", "Longitud_m": "-", "Costo_total": 14638912836, "Estado": "Contratado (Acta de inicio 23 de Junio)", "Ejecutor": "Departamento de Antioquia", "Av_fisico": 0, "Av_financiero": 0, "BPIN": "", "Latitud": 6.785737, "Longitud": -75.283223, "Obs_coord": "Fin Tramo K41+924" }, "geometry": { "type": "Point", "coordinates": [ -75.283223, 6.785737 ] } },
{ "type": "Feature", "properties": { "ID": 3, "Proyecto": "Puente La Loma", "Municipio": "Urrao", "Subregion": "Suroeste", "Longitud_m": "73.7", "Costo_total": 14202451801, "Estado": "Ejecución", "Ejecutor": "Empresa de Desarrollo Territorial de Donmatías S.A.S", "Av_fisico": 0, "Av_financiero": 35.69, "BPIN": "", "Latitud": 6.370973, "Longitud": -76.206322, "Obs_coord": "Inicio tramo" }, "geometry": { "type": "Point", "coordinates": [ -76.206322, 6.370973 ] } },
{ "type": "Feature", "properties": { "ID": 3, "Proyecto": "Puente El Volcan", "Municipio": "Urrao", "Subregion": "Suroeste", "Longitud_m": "40", "Costo_total": 14202451801, "Estado": "Ejecución", "Ejecutor": "Empresa de Desarrollo Territorial de Donmatías S.A.S", "Av_fisico": 0, "Av_financiero": 35.69, "BPIN": "", "Latitud": 6.285905, "Longitud": -76.13047, "Obs_coord": "Inicio tramo" }, "geometry": { "type": "Point", "coordinates": [ -76.13047, 6.285905 ] } },
{ "type": "Feature", "properties": { "ID": 4, "Proyecto": "Puente La Cristalina", "Municipio": "Cisneros", "Subregion": "Nordeste", "Longitud_m": "65", "Costo_total": 9733623342, "Estado": "Ejecución", "Ejecutor": "Empresa de Desarrollo Urbano del Norte de Antioquia - EDUNA", "Av_fisico": 2.09, "Av_financiero": 27.20, "BPIN": "", "Latitud": 6.537113, "Longitud": -75.077998, "Obs_coord": "Inicio Puente K00+54.25" }, "geometry": { "type": "Point", "coordinates": [ -75.077998, 6.537113 ] } },
{ "type": "Feature", "properties": { "ID": 4, "Proyecto": "Puente Av Estudiantes", "Municipio": "Rionegro", "Subregion": "Oriente", "Longitud_m": "30.32", "Costo_total": 9733623342, "Estado": "Ejecución", "Ejecutor": "Empresa de Desarrollo Urbano del Norte de Antioquia - EDUNA", "Av_fisico": 2.09, "Av_financiero": 27.20, "BPIN": "", "Latitud": 6.149577, "Longitud": -75.372341, "Obs_coord": "Inicio Puente K00+101.4" }, "geometry": { "type": "Point", "coordinates": [ -75.372341, 6.149577 ] } },
{ "type": "Feature", "properties": { "ID": 5, "Proyecto": "PAP El 3 San Pedro (Muro y obras de drenaje)", "Municipio": "Turbo", "Subregion": "Urabá", "Longitud_m": "210", "Costo_total": 9381110055, "Estado": "Ejecución", "Ejecutor": "Empresa para el Desarrollo Urbano, Rural y Hábitat - EDURHA, del municipio de Carepa, Antioquia", "Av_fisico": 0, "Av_financiero": 0, "BPIN": "", "Latitud": 8.110237, "Longitud": -76.609444, "Obs_coord": "Inicio tramo K09+323" }, "geometry": { "type": "Point", "coordinates": [ -76.609444, 8.110237 ] } },
{ "type": "Feature", "properties": { "ID": 6, "Proyecto": "PAP Ecogan Taraza (Obras de contención y recuperación de orillas)", "Municipio": "Tarazá", "Subregion": "Bajo Cauca", "Longitud_m": "87", "Costo_total": 2540216819, "Estado": "Ejecución", "Ejecutor": "Visión Vegachí Nordeste S.A.S", "Av_fisico": 0, "Av_financiero": 0, "BPIN": "", "Latitud": 7.684155, "Longitud": -75.501269, "Obs_coord": "Tramo K03+231" }, "geometry": { "type": "Point", "coordinates": [ -75.501269, 7.684155 ] } },
{ "type": "Feature", "properties": { "ID": 7, "Proyecto": "PAP heliconia (Muro y obras de drenaje)", "Municipio": "Heliconia", "Subregion": "Occidente", "Longitud_m": "80", "Costo_total": 6759815490, "Estado": "Ejecución", "Ejecutor": "Provincia Administrativa y de Planificación - PAP - de Penderisco y Sinifaná en el Departamento de Antioquia", "Av_fisico": 11.22, "Av_financiero": 52.32, "BPIN": "", "Latitud": 5.949167, "Longitud": -75.647134, "Obs_coord": "Inicio tramo K19+267" }, "geometry": { "type": "Point", "coordinates": [ -75.647134, 5.949167 ] } },
{ "type": "Feature", "properties": { "ID": 8, "Proyecto": "Puente Las Margaritas", "Municipio": "San Jerónimo", "Subregion": "Occidente", "Longitud_m": "30", "Costo_total": 1956028276, "Estado": "Ejecución", "Ejecutor": "Empresa de Desarrollo Urbano del Occidente - EDUOCCIDENTE", "Av_fisico": 0.56, "Av_financiero": 25, "BPIN": "", "Latitud": 6.421359, "Longitud": -75.726459, "Obs_coord": "Fin Acceso 2 K2+607" }, "geometry": { "type": "Point", "coordinates": [ -75.726459, 6.421359 ] } },
{ "type": "Feature", "properties": { "ID": 9, "Proyecto": "Puente Churimbo", "Municipio": "Santa Fe de Antioquia", "Subregion": "Occidente", "Longitud_m": "14", "Costo_total": 1408385533, "Estado": "Contrato", "Ejecutor": "EMPRESA DE DESARROLLOTERRITORIAL URBANO YRURAL DE MARINILLA- EDUR", "Av_fisico": 0, "Av_financiero": 0, "BPIN": "", "Latitud": 6.599869, "Longitud": -75.976742, "Obs_coord": "Inicio Puente K2+248.6" }, "geometry": { "type": "Point", "coordinates": [ -75.976742, 6.599869 ] } },
{ "type": "Feature", "properties": { "ID": 10, "Proyecto": "Puente Gavino", "Municipio": "Santa rosa de osos y Yolombo", "Subregion": "Norte", "Longitud_m": "-", "Costo_total": 20173509858, "Estado": "Proceso de viabilidad (Pendiente Disponibilidad predial)", "Ejecutor": "", "Av_fisico": 0, "Av_financiero": 0, "BPIN": "2026003050013", "Latitud": 6.570816, "Longitud": -75.200222, "Obs_coord": "Inicio Puente K1+138" }, "geometry": { "type": "Point", "coordinates": [ -75.200222, 6.570816 ] } },
{ "type": "Feature", "properties": { "ID": 11, "Proyecto": "Puente Mi casita", "Municipio": "Venecia", "Subregion": "Suroeste", "Longitud_m": "20", "Costo_total": 4263692901, "Estado": "Proceso de viabilidad (Pendiente Disponibilidad predial)", "Ejecutor": "", "Av_fisico": 0, "Av_financiero": 0, "BPIN": "2026003050012", "Latitud": 5.961677, "Longitud": -75.750555, "Obs_coord": "Inicio Tramo K20+800" }, "geometry": { "type": "Point", "coordinates": [ -75.750555, 5.961677 ] } },
{ "type": "Feature", "properties": { "ID": 12, "Proyecto": "Puente El Verdún", "Municipio": "Jardín", "Subregion": "Suroeste", "Longitud_m": "-", "Costo_total": 5851441805, "Estado": "Aprobado", "Ejecutor": "Empresa de Desarrollo Urbano de La Ceja", "Av_fisico": 0, "Av_financiero": 0, "BPIN": "2026003050015", "Latitud": 5.592602, "Longitud": -75.851152, "Obs_coord": "Fin Puente K2+048.7" }, "geometry": { "type": "Point", "coordinates": [ -75.851152, 5.592602 ] } },
{ "type": "Feature", "properties": { "ID": 12, "Proyecto": "Puente La Florida", "Municipio": "Toledo", "Subregion": "Norte", "Longitud_m": "-", "Costo_total": 5851441805, "Estado": "Aprobado", "Ejecutor": "Empresa de Desarrollo Urbano de La Ceja", "Av_fisico": 0, "Av_financiero": 0, "BPIN": "2026003050015", "Latitud": 7.023322, "Longitud": -75.709353, "Obs_coord": "Fin Puente K1+617.6" }, "geometry": { "type": "Point", "coordinates": [ -75.709353, 7.023322 ] } },
{ "type": "Feature", "properties": { "ID": 13, "Proyecto": "Puente Buritica - Palenque", "Municipio": "Buriticá", "Subregion": "Occidente", "Longitud_m": "-", "Costo_total": 12438994717, "Estado": "Aprobado", "Ejecutor": "Empresa de Desarrollo Urbano de La Ceja", "Av_fisico": 0, "Av_financiero": 0, "BPIN": "2026003050020", "Latitud": 6.844011, "Longitud": -75.912322, "Obs_coord": "Fin Puente K5+329.79" }, "geometry": { "type": "Point", "coordinates": [ -75.912322, 6.844011 ] } },
{ "type": "Feature", "properties": { "ID": 13, "Proyecto": "Puente Buritica - Llanos de Urarco", "Municipio": "Buriticá", "Subregion": "Occidente", "Longitud_m": "-", "Costo_total": 12438994717, "Estado": "Aprobado", "Ejecutor": "Empresa de Desarrollo Urbano de La Ceja", "Av_fisico": 0, "Av_financiero": 0, "BPIN": "2026003050020", "Latitud": 6.914704, "Longitud": -75.919783, "Obs_coord": "Fin Puente K00+677" }, "geometry": { "type": "Point", "coordinates": [ -75.919783, 6.914704 ] } },
{ "type": "Feature", "properties": { "ID": 13, "Proyecto": "Puente Caicedo - La Soledad", "Municipio": "Caicedo", "Subregion": "Occidente", "Longitud_m": "-", "Costo_total": 12438994717, "Estado": "Aprobado", "Ejecutor": "Empresa de Desarrollo Urbano de La Ceja", "Av_fisico": 0, "Av_financiero": 0, "BPIN": "2026003050020", "Latitud": 6.385515, "Longitud": -75.952032, "Obs_coord": "Fin Puente K8+537.15" }, "geometry": { "type": "Point", "coordinates": [ -75.952032, 6.385515 ] } },
{ "type": "Feature", "properties": { "ID": 14, "Proyecto": "Puente Pirú", "Municipio": "San Pedro de Urabá", "Subregion": "Urabá", "Longitud_m": "-", "Costo_total": 3738220582, "Estado": "Aprobado", "Ejecutor": "EMPRESA DE DESARROLLO TERRITORIAL URBANO Y RURAL DE MARINILLA- EDUR", "Av_fisico": 0, "Av_financiero": 0, "BPIN": "2026003050025", "Latitud": 8.242487, "Longitud": -76.361403, "Obs_coord": "Inicio Puente K3+636" }, "geometry": { "type": "Point", "coordinates": [ -76.361403, 8.242487 ] } },
{ "type": "Feature", "properties": { "ID": 14, "Proyecto": "Puente Camarón", "Municipio": "San Pedro de Urabá", "Subregion": "Urabá", "Longitud_m": "-", "Costo_total": 3738220582, "Estado": "Aprobado", "Ejecutor": "EMPRESA DE DESARROLLO TERRITORIAL URBANO Y RURAL DE MARINILLA- EDUR", "Av_fisico": 0, "Av_financiero": 0, "BPIN": "2026003050025", "Latitud": 8.413069, "Longitud": -76.229363, "Obs_coord": "Inicio Puente K05+133" }, "geometry": { "type": "Point", "coordinates": [ -76.229363, 8.413069 ] } }
]
}
